H1 CPF  2  DGF 2024 03 28 10 088 01 lageos2    NONE      
H2  9207002 5986    22195 2024 03 28 00 00 00 2024 04 04 00 00 00    60 1 1  0 0 0 1
H5  0.2443
H9
10 0 60398  50400.000000  0       3000070.299      -6728223.528      -9641004.520
10 0 60398  50460.000000  0       3290112.609      -6613684.153      -9631487.756
10 0 60398  50520.000000  0       3578594.482      -6496501.080      -9614243.583
10 0 60398  50580.000000  0       3865316.249      -6376757.435      -9589294.678
10 0 60398  50640.000000  0       4150079.418      -6254536.385      -9556669.849
10 0 60398  50700.000000  0       4432686.820      -6129921.071      -9516403.987
10 0 60398  50760.000000  0       4712942.750      -6002994.545      -9468538.011
10 0 60398  50820.000000  0       4990653.114      -5873839.709      -9413118.805
10 0 60398  50880.000000  0       5265625.568      -5742539.257      -9350199.155
10 0 60398  50940.000000  0       5537669.654      -5609175.615      -9279837.680
10 0 60398  51000.000000  0       5806596.938      -5473830.889      -9202098.761
10 0 60398  51060.000000  0       6072221.146      -5336586.810      -9117052.463
10 0 60398  51120.000000  0       6334358.290      -5197524.685      -9024774.455
10 0 60398  51180.000000  0       6592826.800      -5056725.349      -8925345.926
10 0 60398  51240.000000  0       6847447.649      -4914269.117      -8818853.499
10 0 60398  51300.000000  0       7098044.476      -4770235.743      -8705389.139
10 0 60398  51360.000000  0       7344443.708      -4624704.376      -8585050.059
10 0 60398  51420.000000  0       7586474.679      -4477753.522      -8457938.624
10 0 60398  51480.000000  0       7823969.739      -4329461.007      -8324162.251
10 0 60398  51540.000000  0       8056764.376      -4179903.944      -8183833.305
10 0 60398  51600.000000  0       8284697.317      -4029158.696      -8037068.994
10 0 60398  51660.000000  0       8507610.641      -3877300.850      -7883991.260
10 0 60398  51720.000000  0       8725349.877      -3724405.187      -7724726.671
10 0 60398  51780.000000  0       8937764.112      -3570545.658      -7559406.305
10 0 60398  51840.000000  0       9144706.080      -3415795.358      -7388165.636
10 0 60398  51900.000000  0       9346032.267      -3260226.505      -7211144.415
10 0 60398  51960.000000  0       9541602.995      -3103910.424      -7028486.555
10 0 60398  52020.000000  0       9731282.514      -2946917.524      -6840340.001
10 0 60398  52080.000000  0       9914939.088      -2789317.287      -6646856.618
10 0 60398  52140.000000  0      10092445.078      -2631178.255      -6448192.056
10 0 60398  52200.000000  0      10263677.021      -2472568.015      -6244505.628
10 0 60398  52260.000000  0      10428515.707      -2313553.196      -6035960.182
10 0 60398  52320.000000  0      10586846.255      -2154199.454      -5822721.972
10 0 60398  52380.000000  0      10738558.180      -1994571.473      -5604960.522
10 0 60398  52440.000000  0      10883545.462      -1834732.958      -5382848.501
10 0 60398  52500.000000  0      11021706.612      -1674746.634      -5156561.585
10 0 60398  52560.000000  0      11152944.733      -1514674.247      -4926278.325
10 0 60398  52620.000000  0      11277167.577      -1354576.564      -4692180.010
10 0 60398  52680.000000  0      11394287.602      -1194513.376      -4454450.530
10 0 60398  52740.000000  0      11504222.023      -1034543.504      -4213276.244
10 0 60398  52800.000000  0      11606892.863       -874724.803      -3968845.834
10 0 60398  52860.000000  0      11702226.999       -715114.175      -3721350.175
10 0 60398  52920.000000  0      11790156.203       -555767.572      -3470982.191
10 0 60398  52980.000000  0      11870617.185       -396740.008      -3217936.715
10 0 60398  53040.000000  0      11943551.628       -238085.574      -2962410.351
10 0 60398  53100.000000  0      12008906.227        -79857.447      -2704601.333
10 0 60398  53160.000000  0      12066632.712         77892.092      -2444709.385
10 0 60398  53220.000000  0      12116687.883        235111.646      -2182935.578
10 0 60398  53280.000000  0      12159033.635        391750.686      -1919482.189
10 0 60398  53340.000000  0      12193636.974        547759.530      -1654552.561
10 0 60398  53400.000000  0      12220470.046        703089.326      -1388350.961
10 0 60398  53460.000000  0      12239510.145        857692.036      -1121082.438
10 0 60398  53520.000000  0      12250739.730       1011520.412       -852952.681
10 0 60398  53580.000000  0      12254146.436       1164527.978       -584167.879
10 0 60398  53640.000000  0      12249723.081       1316669.007       -314934.578
10 0 60398  53700.000000  0      12237467.670       1467898.500        -45459.540
10 0 60398  53760.000000  0      12217383.397       1618172.161        224050.396
10 0 60398  53820.000000  0      12189478.645       1767446.380        493388.459
10 0 60398  53880.000000  0      12153766.981       1915678.200        762348.080
10 0 60398  53940.000000  0      12110267.151       2062825.303       1030723.038
10 0 60398  54000.000000  0      12059003.066       2208845.978       1298307.598
10 0 60398  54060.000000  0      12000003.794       2353699.103       1564896.648
10 0 60398  54120.000000  0      11933303.544       2497344.114       1830285.842
10 0 60398  54180.000000  0      11858941.644       2639740.986       2094271.732
10 0 60398  54240.000000  0      11776962.524       2780850.203       2356651.911
10 0 60398  54300.000000  0      11687415.690       2920632.738       2617225.151
10 0 60398  54360.000000  0      11590355.699       3059050.025       2875791.532
10 0 60398  54420.000000  0      11485842.127       3196063.935       3132152.585
10 0 60398  54480.000000  0      11373939.540       3331636.753       3386111.425
10 0 60398  54540.000000  0      11254717.454       3465731.151       3637472.882
10 0 60398  54600.000000  0      11128250.302       3598310.167       3886043.639
10 0 60398  54660.000000  0      10994617.390       3729337.180       4131632.359
10 0 60398  54720.000000  0      10853902.855       3858775.887       4374049.824
10 0 60398  54780.000000  0      10706195.618       3986590.279       4613109.058
10 0 60398  54840.000000  0      10551589.335       4112744.623       4848625.459
10 0 60398  54900.000000  0      10390182.345       4237203.435       5080416.931
10 0 60398  54960.000000  0      10222077.614       4359931.462       5308304.006
10 0 60398  55020.000000  0      10047382.682       4480893.663       5532109.973
10 0 60398  55080.000000  0       9866209.597       4600055.188       5751661.004
10 0 60398  55140.000000  0       9678674.854       4717381.356       5966786.274
10 0 60398  55200.000000  0       9484899.331       4832837.645       6177318.089
10 0 60398  55260.000000  0       9285008.218       4946389.668       6383092.000
10 0 60398  55320.000000  0       9079130.948       5058003.159       6583946.929
10 0 60398  55380.000000  0       8867401.119       5167643.961       6779725.283
10 0 60398  55440.000000  0       8649956.422       5275278.008       6970273.073
10 0 60398  55500.000000  0       8426938.557       5380871.315       7155440.029
10 0 60398  55560.000000  0       8198493.153       5484389.964       7335079.710
10 0 60398  55620.000000  0       7964769.682       5585800.095       7509049.621
10 0 60398  55680.000000  0       7725921.372       5685067.897       7677211.317
10 0 60398  55740.000000  0       7482105.116       5782159.598       7839430.516
10 0 60398  55800.000000  0       7233481.376       5877041.462       7995577.202
10 0 60398  55860.000000  0       6980214.092       5969679.779       8145525.731
10 0 60398  55920.000000  0       6722470.578       6060040.863       8289154.931
10 0 60398  55980.000000  0       6460421.426       6148091.052       8426348.202
10 0 60398  56040.000000  0       6194240.395       6233796.701       8556993.616
10 0 60398  56100.000000  0       5924104.311       6317124.188       8680984.010
10 0 60398  56160.000000  0       5650192.955       6398039.913       8798217.079
10 0 60398  56220.000000  0       5372688.947       6476510.300       8908595.466
10 0 60398  56280.000000  0       5091777.638       6552501.806       9012026.853
10 0 60398  56340.000000  0       4807646.990       6625980.921       9108424.043
10 0 60398  56400.000000  0       4520487.454       6696914.184       9197705.041
10 0 60398  56460.000000  0       4230491.850       6765268.186       9279793.138
10 0 60398  56520.000000  0       3937855.243       6831009.583       9354616.985
10 0 60398  56580.000000  0       3642774.813       6894105.110       9422110.668
10 0 60398  56640.000000  0       3345449.730       6954521.594       9482213.774
10 0 60398  56700.000000  0       3046081.016       7012225.972       9534871.467
10 0 60398  56760.000000  0       2744871.415       7067185.304       9580034.543
10 0 60398  56820.000000  0       2442025.256       7119366.800       9617659.496
10 0 60398  56880.000000  0       2137748.312       7168737.832       9647708.571
10 0 60398  56940.000000  0       1832247.662       7215265.965       9670149.823
10 0 60398  57000.000000  0       1525731.546       7258918.973       9684957.161
10 0 60398  57060.000000  0       1218409.219       7299664.873       9692110.396
10 0 60398  57120.000000  0        910490.807       7337471.946       9691595.283
10 0 60398  57180.000000  0        602187.157       7372308.768       9683403.559
10 0 60398  57240.000000  0        293709.685       7404144.241       9667532.975
10 0 60398  57300.000000  0        -14729.776       7432947.626       9643987.328
10 0 60398  57360.000000  0       -322919.128       7458688.573       9612776.483
10 0 60398  57420.000000  0       -630646.168       7481337.160       9573916.393
10 0 60398  57480.000000  0       -937698.740       7500863.927       9527429.121
10 0 60398  57540.000000  0      -1243864.895       7517239.912       9473342.842
99